{"type":"FeatureCollection","features":[{"type":"Feature","id":1,"geometry":{"type":"Polygon","coordinates":[[[-75.58181,6.424535],[-75.582297,6.424814],[-75.58247,6.424947],[-75.583134,6.425601],[-75.583418,6.425802],[-75.58365,6.426016],[-75.58398,6.426227],[-75.58402,6.426293],[-75.584096,6.42664],[-75.584205,6.426779],[-75.584228,6.426868],[-75.584391,6.427038],[-75.584672,6.427464],[-75.584778,6.427556],[-75.585095,6.427642],[-75.585273,6.427774],[-75.585478,6.428258],[-75.585571,6.428572],[-75.585591,6.428863],[-75.585657,6.429019],[-75.585766,6.429736],[-75.585936,6.430336],[-75.586058,6.430617],[-75.586157,6.430957],[-75.586332,6.431215],[-75.587423,6.431874],[-75.588321,6.432235],[-75.588666,6.432317],[-75.58892,6.432325],[-75.589139,6.432292],[-75.589824,6.432005],[-75.590205,6.431929],[-75.590717,6.431724],[-75.590941,6.431672],[-75.591115,6.43145],[-75.591455,6.431111],[-75.591757,6.430927],[-75.592194,6.430726],[-75.592305,6.430635],[-75.592543,6.430281],[-75.592778,6.429425],[-75.593069,6.428685],[-75.593131,6.428298],[-75.593088,6.42753],[-75.59314,6.427204],[-75.59322,6.427002],[-75.593432,6.426685],[-75.594114,6.425885],[-75.594565,6.425206],[-75.594752,6.424903],[-75.594952,6.424365],[-75.595075,6.424128],[-75.595429,6.423698],[-75.595772,6.423022],[-75.595818,6.422852],[-75.595923,6.422641],[-75.59608,6.422436],[-75.596438,6.422069],[-75.596621,6.421771],[-75.596809,6.42122],[-75.597024,6.420313],[-75.597119,6.420087],[-75.597257,6.41991],[-75.597491,6.419737],[-75.597633,6.419665],[-75.597998,6.419597],[-75.598153,6.419489],[-75.598348,6.41924],[-75.598468,6.418943],[-75.598563,6.418791],[-75.599072,6.418271],[-75.599524,6.417685],[-75.59968,6.417352],[-75.599857,6.416061],[-75.599951,6.415597],[-75.600079,6.415252],[-75.600799,6.414645],[-75.60233,6.413776],[-75.602633,6.413637],[-75.603275,6.413417],[-75.603417,6.413328],[-75.603495,6.413197],[-75.603736,6.413015],[-75.604048,6.413015],[-75.60418,6.413063],[-75.60455,6.413101],[-75.605161,6.412841],[-75.605383,6.412859],[-75.605795,6.412964],[-75.606274,6.41295],[-75.607179,6.412587],[-75.609095,6.411726],[-75.610474,6.41145],[-75.611032,6.411148],[-75.611563,6.410667],[-75.612324,6.409822],[-75.612538,6.409439],[-75.613142,6.408291],[-75.613499,6.407396],[-75.613601,6.407052],[-75.613623,6.407013],[-75.613652,6.407032],[-75.614091,6.406156],[-75.61445,6.405581],[-75.615415,6.40385],[-75.615591,6.403427],[-75.615766,6.402468],[-75.615811,6.400797],[-75.615662,6.400077],[-75.615152,6.398527],[-75.615129,6.39829],[-75.615207,6.398122],[-75.616,6.397245],[-75.616163,6.396974],[-75.616304,6.39665],[-75.616413,6.396189],[-75.616489,6.395408],[-75.616572,6.394996],[-75.616895,6.3939],[-75.617232,6.392465],[-75.618709,6.389528],[-75.618884,6.389131],[-75.619069,6.388578],[-75.619876,6.387012],[-75.620624,6.385248],[-75.620754,6.384881],[-75.621009,6.383519],[-75.621322,6.382507],[-75.621344,6.38234],[-75.621399,6.38235],[-75.621532,6.382621],[-75.621746,6.382821],[-75.622255,6.383036],[-75.622984,6.383232],[-75.623834,6.383413],[-75.623979,6.383413],[-75.624646,6.383601],[-75.628186,6.384113],[-75.629032,6.384085],[-75.62919,6.384121],[-75.629543,6.384331],[-75.63259,6.386383],[-75.632985,6.386599],[-75.634032,6.387039],[-75.635808,6.38806],[-75.636641,6.388603],[-75.636986,6.388165],[-75.637138,6.387683],[-75.637454,6.387278],[-75.637492,6.386766],[-75.637429,6.386501],[-75.637429,6.386362],[-75.637549,6.38567],[-75.638067,6.384753],[-75.63852,6.384428],[-75.639923,6.383745],[-75.640372,6.383587],[-75.641859,6.383307],[-75.641916,6.383256],[-75.642384,6.383326],[-75.64281,6.383231],[-75.643379,6.383256],[-75.643531,6.383224],[-75.643727,6.383079],[-75.643961,6.382769],[-75.645339,6.382485],[-75.645592,6.382377],[-75.645995,6.382278],[-75.646918,6.381893],[-75.648076,6.381317],[-75.648283,6.381172],[-75.64851,6.381172],[-75.649108,6.3809],[-75.650277,6.380589],[-75.65056,6.38054],[-75.650898,6.380533],[-75.651077,6.380478],[-75.651298,6.380244],[-75.652153,6.379975],[-75.652721,6.379947],[-75.65308,6.380009],[-75.653694,6.380257],[-75.653832,6.380381],[-75.65408,6.380436],[-75.654356,6.380326],[-75.654694,6.38025],[-75.65491,6.380243],[-75.655338,6.380408],[-75.655531,6.380443],[-75.655711,6.380443],[-75.655924,6.380388],[-75.656145,6.380277],[-75.65649,6.380277],[-75.656697,6.380208],[-75.656849,6.379919],[-75.656959,6.379815],[-75.657173,6.379629],[-75.657809,6.379206],[-75.658133,6.378923],[-75.658257,6.378744],[-75.658402,6.37862],[-75.659458,6.378426],[-75.659609,6.378302],[-75.659671,6.378088],[-75.659872,6.377779],[-75.660055,6.377725],[-75.660672,6.377705],[-75.660894,6.377779],[-75.661047,6.377784],[-75.66153,6.378085],[-75.661979,6.378528],[-75.662117,6.378415],[-75.662328,6.378513],[-75.662471,6.378484],[-75.662585,6.378218],[-75.662663,6.378099],[-75.662764,6.378042],[-75.663065,6.378032],[-75.663257,6.378096],[-75.663361,6.378234],[-75.663765,6.378224],[-75.664095,6.378332],[-75.664608,6.378573],[-75.665069,6.379022],[-75.665665,6.379339],[-75.665934,6.379732],[-75.666173,6.380177],[-75.666478,6.380252],[-75.666603,6.380199],[-75.666488,6.380099],[-75.66647,6.380003],[-75.666624,6.379388],[-75.667306,6.378613],[-75.667406,6.378328],[-75.667366,6.378029],[-75.667273,6.377784],[-75.667061,6.377546],[-75.666961,6.377241],[-75.667047,6.377022],[-75.667024,6.376873],[-75.666952,6.37673],[-75.666926,6.376037],[-75.666972,6.375855],[-75.667116,6.37575],[-75.667664,6.3756],[-75.667978,6.375443],[-75.668134,6.37526],[-75.668141,6.375012],[-75.668069,6.374388],[-75.668127,6.374028],[-75.668095,6.373689],[-75.667945,6.373584],[-75.667781,6.373558],[-75.667605,6.37346],[-75.667494,6.373121],[-75.6675,6.372938],[-75.667259,6.372644],[-75.667285,6.372442],[-75.667226,6.37222],[-75.667069,6.372181],[-75.666867,6.372063],[-75.666697,6.37192],[-75.666596,6.371882],[-75.666472,6.371745],[-75.666453,6.371556],[-75.666361,6.371412],[-75.666139,6.371236],[-75.666054,6.371203],[-75.666139,6.370465],[-75.665838,6.369519],[-75.665713,6.369279],[-75.665674,6.36909],[-75.66568,6.368881],[-75.665582,6.368541],[-75.665562,6.36828],[-75.665327,6.367673],[-75.665249,6.367249],[-75.665457,6.366571],[-75.665431,6.366069],[-75.665372,6.365834],[-75.665255,6.365697],[-75.66515,6.365703],[-75.665039,6.365572],[-75.664876,6.365292],[-75.664817,6.364906],[-75.664561,6.364707],[-75.664097,6.363773],[-75.663699,6.363257],[-75.663633,6.36299],[-75.663652,6.362745],[-75.663489,6.362601],[-75.663411,6.362477],[-75.663313,6.361981],[-75.663208,6.361818],[-75.663195,6.361583],[-75.663273,6.361341],[-75.663143,6.361145],[-75.662761,6.36092],[-75.662624,6.360746],[-75.662537,6.36046],[-75.662326,6.3602],[-75.662016,6.359964],[-75.661768,6.359889],[-75.661519,6.359927],[-75.660886,6.359803],[-75.660687,6.359703],[-75.660352,6.359604],[-75.659781,6.359182],[-75.659632,6.358909],[-75.659656,6.358177],[-75.65952,6.357382],[-75.659346,6.357183],[-75.658974,6.357101],[-75.658853,6.356948],[-75.658314,6.356689],[-75.6582,6.356524],[-75.657406,6.356045],[-75.657508,6.355592],[-75.657508,6.355423],[-75.657466,6.355095],[-75.657339,6.354852],[-75.657138,6.354662],[-75.656885,6.354599],[-75.6566,6.354578],[-75.656314,6.354483],[-75.656208,6.354319],[-75.65624,6.354087],[-75.656198,6.353844],[-75.655849,6.353474],[-75.65568,6.353232],[-75.655585,6.35283],[-75.655786,6.352524],[-75.655902,6.352207],[-75.655838,6.351885],[-75.655194,6.351125],[-75.655183,6.350808],[-75.655246,6.350523],[-75.655257,6.350196],[-75.655215,6.349815],[-75.655098,6.349573],[-75.654803,6.349372],[-75.654528,6.349245],[-75.654369,6.349034],[-75.654264,6.348791],[-75.654264,6.348548],[-75.654422,6.348151],[-75.654454,6.347739],[-75.654412,6.34758],[-75.654232,6.347232],[-75.654169,6.346999],[-75.654158,6.346725],[-75.654264,6.346566],[-75.654369,6.346313],[-75.654316,6.346059],[-75.654221,6.345859],[-75.654221,6.345658],[-75.654263,6.345426],[-75.654603,6.345103],[-75.654614,6.344976],[-75.654709,6.344712],[-75.654751,6.343815],[-75.654983,6.343456],[-75.655089,6.343192],[-75.655343,6.342331],[-75.655427,6.342183],[-75.65548,6.341951],[-75.65548,6.341793],[-75.655174,6.34137],[-75.654984,6.34118],[-75.654677,6.341011],[-75.654519,6.34079],[-75.654424,6.340494],[-75.654265,6.340156],[-75.654085,6.339924],[-75.654022,6.338973],[-75.654064,6.338582],[-75.65418,6.338284],[-75.65437,6.337914],[-75.65475,6.337491],[-75.655046,6.336837],[-75.655257,6.335992],[-75.655225,6.335379],[-75.654902,6.334852],[-75.654801,6.334756],[-75.6544,6.334508],[-75.654405,6.334454],[-75.654232,6.334021],[-75.654238,6.333884],[-75.654198,6.333757],[-75.654266,6.333632],[-75.654266,6.333505],[-75.654232,6.333437],[-75.653762,6.333231],[-75.653688,6.333275],[-75.653517,6.333534],[-75.653158,6.333396],[-75.652933,6.333414],[-75.652608,6.333514],[-75.652489,6.333482],[-75.652391,6.333417],[-75.652252,6.33311],[-75.652165,6.333002],[-75.651978,6.332878],[-75.651785,6.332802],[-75.651503,6.332607],[-75.65102,6.332098],[-75.650664,6.331594],[-75.650437,6.331458],[-75.650298,6.331314],[-75.650078,6.331162],[-75.649758,6.331028],[-75.649276,6.331001],[-75.649075,6.331075],[-75.648952,6.331176],[-75.648818,6.331224],[-75.648594,6.331228],[-75.648587,6.330904],[-75.648553,6.330841],[-75.648263,6.330628],[-75.647868,6.330044],[-75.647793,6.329969],[-75.647652,6.329914],[-75.647526,6.329929],[-75.647386,6.329789],[-75.647273,6.329752],[-75.647246,6.329558],[-75.646812,6.329064],[-75.646799,6.328951],[-75.646654,6.32896],[-75.646648,6.328812],[-75.646522,6.328753],[-75.64642,6.328544],[-75.646331,6.328479],[-75.646238,6.328348],[-75.64618,6.328323],[-75.646079,6.32836],[-75.645809,6.328182],[-75.645574,6.327975],[-75.645201,6.327531],[-75.645123,6.327286],[-75.644954,6.327057],[-75.644637,6.326427],[-75.64457,6.326228],[-75.644246,6.325869],[-75.644107,6.325626],[-75.644112,6.325574],[-75.643942,6.325416],[-75.643843,6.325228],[-75.643566,6.325019],[-75.643251,6.324865],[-75.642966,6.324667],[-75.642837,6.324619],[-75.642811,6.324378],[-75.642752,6.324306],[-75.642706,6.324136],[-75.642549,6.324039],[-75.642419,6.323878],[-75.642208,6.323503],[-75.64191,6.322855],[-75.641785,6.322687],[-75.641276,6.32244],[-75.640917,6.322106],[-75.63978,6.321527],[-75.639626,6.321489],[-75.639266,6.32151],[-75.63905,6.321619],[-75.638712,6.32171],[-75.638219,6.32171],[-75.637861,6.321578],[-75.637513,6.321397],[-75.637326,6.321168],[-75.637155,6.320849],[-75.636958,6.320152],[-75.636764,6.320038],[-75.636614,6.320031],[-75.636319,6.319886],[-75.636214,6.319752],[-75.63614,6.31941],[-75.63622,6.318834],[-75.636193,6.318775],[-75.635959,6.318623],[-75.635461,6.318415],[-75.635339,6.318242],[-75.635222,6.317815],[-75.635161,6.317754],[-75.635054,6.317693],[-75.634926,6.317698],[-75.634611,6.317617],[-75.634052,6.317195],[-75.633823,6.317205],[-75.63363,6.317261],[-75.633053,6.317254],[-75.632932,6.317139],[-75.632666,6.317132],[-75.632322,6.316971],[-75.632105,6.31667],[-75.631993,6.316607],[-75.631411,6.316621],[-75.631159,6.3166],[-75.630921,6.316537],[-75.630491,6.316296],[-75.629861,6.3161],[-75.629658,6.316065],[-75.62944,6.315798],[-75.629307,6.3157],[-75.629083,6.315686],[-75.628733,6.315581],[-75.628537,6.315574],[-75.628389,6.315644],[-75.628298,6.315637],[-75.627983,6.315532],[-75.627402,6.315119],[-75.627331,6.314909],[-75.627107,6.314545],[-75.626927,6.314528],[-75.626752,6.314374],[-75.626717,6.31422],[-75.626584,6.314115],[-75.626444,6.314066],[-75.626142,6.313842],[-75.625911,6.313779],[-75.625736,6.313667],[-75.625379,6.313331],[-75.625267,6.313345],[-75.625049,6.313478],[-75.624804,6.313415],[-75.624531,6.313436],[-75.624433,6.313555],[-75.624193,6.313718],[-75.624151,6.313949],[-75.624025,6.314061],[-75.623773,6.314425],[-75.623654,6.314629],[-75.62357,6.314909],[-75.623394,6.315216],[-75.623271,6.315345],[-75.623124,6.315401],[-75.623044,6.315235],[-75.623013,6.314916],[-75.622884,6.314811],[-75.622737,6.314744],[-75.622497,6.314787],[-75.622135,6.314517],[-75.621709,6.314374],[-75.621592,6.314294],[-75.621562,6.314147],[-75.621433,6.31408],[-75.621261,6.314344],[-75.62099,6.314497],[-75.620905,6.314473],[-75.620825,6.314381],[-75.620665,6.314307],[-75.620542,6.314276],[-75.620211,6.314319],[-75.620063,6.314301],[-75.619719,6.314153],[-75.619216,6.314018],[-75.618979,6.313857],[-75.618807,6.313611],[-75.618666,6.313476],[-75.618519,6.313433],[-75.61834,6.313439],[-75.618181,6.313489],[-75.617862,6.313679],[-75.617671,6.313624],[-75.617419,6.313624],[-75.617008,6.313556],[-75.616719,6.313421],[-75.616529,6.313378],[-75.616375,6.313286],[-75.616296,6.313163],[-75.616204,6.313126],[-75.616111,6.313194],[-75.615798,6.313206],[-75.615596,6.313286],[-75.615463,6.313386],[-75.615328,6.313379],[-75.615002,6.313257],[-75.61483,6.313244],[-75.614787,6.313337],[-75.614867,6.313545],[-75.614861,6.313601],[-75.614775,6.31365],[-75.614738,6.313822],[-75.614499,6.314104],[-75.614333,6.314086],[-75.614241,6.314],[-75.613498,6.314],[-75.613246,6.314098],[-75.613068,6.314012],[-75.612718,6.313981],[-75.612601,6.313994],[-75.612282,6.314129],[-75.611805,6.314153],[-75.611171,6.313917],[-75.610451,6.313449],[-75.610026,6.313291],[-75.609835,6.313247],[-75.609595,6.313244],[-75.609315,6.313309],[-75.609189,6.313262],[-75.609062,6.313115],[-75.608792,6.312599],[-75.608641,6.312461],[-75.608654,6.312252],[-75.608459,6.311819],[-75.608362,6.311509],[-75.608206,6.311373],[-75.607469,6.311121],[-75.60677,6.310771],[-75.606304,6.310694],[-75.605974,6.310597],[-75.605508,6.310403],[-75.605178,6.310131],[-75.604945,6.309859],[-75.604266,6.309354],[-75.603858,6.30918],[-75.603373,6.309044],[-75.602848,6.308986],[-75.602145,6.308988],[-75.601589,6.30873],[-75.601365,6.30876],[-75.60042,6.308551],[-75.599621,6.30816],[-75.599401,6.307931],[-75.599309,6.307747],[-75.599083,6.307591],[-75.598694,6.307475],[-75.598226,6.307427],[-75.597934,6.30729],[-75.597682,6.307253],[-75.597086,6.307034],[-75.596865,6.307081],[-75.596501,6.30732],[-75.596059,6.30744],[-75.59578,6.30763],[-75.595549,6.307741],[-75.595407,6.307765],[-75.59534,6.307718],[-75.594953,6.307691],[-75.594754,6.307609],[-75.594237,6.307842],[-75.59413,6.307829],[-75.594077,6.307904],[-75.594065,6.308055],[-75.593864,6.308166],[-75.59389,6.308378],[-75.593809,6.308417],[-75.593532,6.308411],[-75.593337,6.308493],[-75.593074,6.308431],[-75.592823,6.308472],[-75.592292,6.308427],[-75.592161,6.308365],[-75.59203,6.308351],[-75.591788,6.308367],[-75.591677,6.308395],[-75.591572,6.308564],[-75.59144,6.308649],[-75.591267,6.308639],[-75.591066,6.308524],[-75.590572,6.308778],[-75.590394,6.308817],[-75.590103,6.308813],[-75.589963,6.308896],[-75.5897,6.308954],[-75.589331,6.309125],[-75.58877,6.30952],[-75.588051,6.309777],[-75.58789,6.309738],[-75.587765,6.309779],[-75.58761,6.309854],[-75.58744,6.310023],[-75.587371,6.31005],[-75.587277,6.310048],[-75.587062,6.309966],[-75.586699,6.310012],[-75.586052,6.31002],[-75.58589,6.309847],[-75.585787,6.309799],[-75.585602,6.309802],[-75.585304,6.309643],[-75.585098,6.309372],[-75.584998,6.309321],[-75.584784,6.30929],[-75.584715,6.309228],[-75.584455,6.309329],[-75.58427,6.309243],[-75.584122,6.309222],[-75.583606,6.309285],[-75.583423,6.309191],[-75.583088,6.309365],[-75.582996,6.309381],[-75.582652,6.309329],[-75.582428,6.309223],[-75.582335,6.309123],[-75.582113,6.309096],[-75.582008,6.309025],[-75.581898,6.309038],[-75.581679,6.308928],[-75.580865,6.309243],[-75.580811,6.309376],[-75.580673,6.309444],[-75.580219,6.309573],[-75.580152,6.309653],[-75.57998,6.309735],[-75.579761,6.309768],[-75.579597,6.309878],[-75.579387,6.309958],[-75.579265,6.31006],[-75.579104,6.310073],[-75.578867,6.310227],[-75.578826,6.310292],[-75.578829,6.310381],[-75.578797,6.310394],[-75.578606,6.310425],[-75.578463,6.310366],[-75.578158,6.310484],[-75.577986,6.310467],[-75.577809,6.310528],[-75.57771,6.31068],[-75.577659,6.310705],[-75.577513,6.310674],[-75.577351,6.310749],[-75.577217,6.310743],[-75.577151,6.310704],[-75.577055,6.310713],[-75.576726,6.310917],[-75.576634,6.311144],[-75.576475,6.311198],[-75.576101,6.311111],[-75.575859,6.310885],[-75.575804,6.310914],[-75.575757,6.310996],[-75.575685,6.311016],[-75.575425,6.31085],[-75.575022,6.310786],[-75.574755,6.310824],[-75.574545,6.310718],[-75.574452,6.310746],[-75.57434,6.31072],[-75.574186,6.310734],[-75.574064,6.310673],[-75.573875,6.310679],[-75.573734,6.310807],[-75.573525,6.310809],[-75.57334,6.310709],[-75.572947,6.310708],[-75.572816,6.310604],[-75.57274,6.310601],[-75.572561,6.3107],[-75.57229,6.310666],[-75.572042,6.310888],[-75.571784,6.310922],[-75.571715,6.310855],[-75.571612,6.310586],[-75.571471,6.310478],[-75.571144,6.310574],[-75.570863,6.310798],[-75.570585,6.310804],[-75.570309,6.310875],[-75.56978,6.310832],[-75.569686,6.310875],[-75.569616,6.310954],[-75.56893,6.312016],[-75.568741,6.312206],[-75.568515,6.31227],[-75.568293,6.312268],[-75.568119,6.312217],[-75.567956,6.312112],[-75.56783,6.312103],[-75.567765,6.31216],[-75.567766,6.312293],[-75.567738,6.312322],[-75.567503,6.312424],[-75.56732,6.31263],[-75.567093,6.312635],[-75.566807,6.312568],[-75.566577,6.31272],[-75.566129,6.312808],[-75.565955,6.312784],[-75.565798,6.312606],[-75.565542,6.312527],[-75.565127,6.31221],[-75.564776,6.31209],[-75.56453,6.311899],[-75.564227,6.311848],[-75.56387,6.312015],[-75.563327,6.311975],[-75.562965,6.312037],[-75.562762,6.311999],[-75.562521,6.311884],[-75.562226,6.311987],[-75.56189,6.311936],[-75.561803,6.31195],[-75.561486,6.312125],[-75.561388,6.312123],[-75.561031,6.311933],[-75.560603,6.31206],[-75.560272,6.312008],[-75.560055,6.312121],[-75.559555,6.312078],[-75.559258,6.311971],[-75.559168,6.311968],[-75.558925,6.312021],[-75.558678,6.312233],[-75.558202,6.312222],[-75.557898,6.312061],[-75.557455,6.311905],[-75.55662,6.311543],[-75.556129,6.311143],[-75.556984,6.309982],[-75.556942,6.309852],[-75.556863,6.309724],[-75.556758,6.309654],[-75.556422,6.30958],[-75.556278,6.309495],[-75.55596,6.309132],[-75.555864,6.308934],[-75.555758,6.308807],[-75.555336,6.308521],[-75.555191,6.308265],[-75.554946,6.308065],[-75.554739,6.308038],[-75.554461,6.307949],[-75.553489,6.30757],[-75.553008,6.307437],[-75.552837,6.307422],[-75.552305,6.307492],[-75.552143,6.307467],[-75.552041,6.307192],[-75.551771,6.30704],[-75.551004,6.307044],[-75.550815,6.307072],[-75.550764,6.307022],[-75.550623,6.306693],[-75.550516,6.306586],[-75.55038,6.306512],[-75.550216,6.306544],[-75.550112,6.306504],[-75.550017,6.306507],[-75.549798,6.306746],[-75.549622,6.306736],[-75.549538,6.306647],[-75.54947,6.306472],[-75.549264,6.306347],[-75.549083,6.306037],[-75.548903,6.305962],[-75.54878,6.306141],[-75.548726,6.306162],[-75.548643,6.306114],[-75.548601,6.306004],[-75.548633,6.305814],[-75.548612,6.305766],[-75.548403,6.305875],[-75.548358,6.305979],[-75.548308,6.306019],[-75.548031,6.305862],[-75.547974,6.305734],[-75.547555,6.305715],[-75.54727,6.305466],[-75.547109,6.305478],[-75.546992,6.305444],[-75.546786,6.305593],[-75.546696,6.305591],[-75.546428,6.305481],[-75.546209,6.305516],[-75.546145,6.305539],[-75.546092,6.305662],[-75.546039,6.305679],[-75.545912,6.30562],[-75.545804,6.305512],[-75.545702,6.305317],[-75.545757,6.305198],[-75.545732,6.305124],[-75.545685,6.305064],[-75.545596,6.305041],[-75.54536,6.304867],[-75.545159,6.304534],[-75.545049,6.304487],[-75.544967,6.304394],[-75.544713,6.304384],[-75.544513,6.304163],[-75.544437,6.304186],[-75.544299,6.304307],[-75.544155,6.304268],[-75.544047,6.304222],[-75.54389,6.304025],[-75.543555,6.303909],[-75.543329,6.303689],[-75.542988,6.303833],[-75.54289,6.303929],[-75.542858,6.304015],[-75.542661,6.303903],[-75.542499,6.303894],[-75.542434,6.303778],[-75.54237,6.30376],[-75.542209,6.303602],[-75.54207,6.303295],[-75.542,6.30323],[-75.541972,6.30301],[-75.541882,6.302875],[-75.541641,6.302804],[-75.541233,6.302813],[-75.541157,6.302782],[-75.541081,6.302696],[-75.540903,6.302628],[-75.54058,6.30259],[-75.540451,6.302506],[-75.540429,6.302424],[-75.54026,6.302229],[-75.540145,6.302237],[-75.539886,6.302087],[-75.539839,6.301962],[-75.539664,6.301815],[-75.539553,6.301581],[-75.539443,6.301482],[-75.539311,6.301281],[-75.539245,6.3011],[-75.539228,6.300917],[-75.538913,6.300765],[-75.538745,6.300767],[-75.538585,6.300656],[-75.538494,6.300694],[-75.538487,6.300772],[-75.538425,6.300817],[-75.538318,6.300818],[-75.538215,6.300695],[-75.538243,6.300508],[-75.5382,6.300463],[-75.538169,6.300295],[-75.537966,6.300184],[-75.537953,6.300113],[-75.537809,6.299875],[-75.537619,6.299718],[-75.537351,6.299278],[-75.537277,6.299045],[-75.537274,6.29893],[-75.537174,6.298851],[-75.537161,6.298689],[-75.537103,6.298537],[-75.537029,6.298436],[-75.536761,6.298249],[-75.536617,6.298186],[-75.536522,6.298184],[-75.536361,6.298192],[-75.536032,6.298275],[-75.535842,6.298474],[-75.535783,6.298602],[-75.535674,6.2987],[-75.535574,6.298874],[-75.535235,6.299143],[-75.535121,6.299195],[-75.534774,6.299255],[-75.534562,6.299352],[-75.534446,6.29933],[-75.53436,6.299355],[-75.534033,6.29966],[-75.533909,6.299841],[-75.533709,6.299954],[-75.53339,6.300039],[-75.533017,6.30004],[-75.532767,6.29996],[-75.532272,6.299714],[-75.532132,6.299585],[-75.531444,6.29914],[-75.531438,6.299104],[-75.53136,6.299151],[-75.53121,6.299112],[-75.531074,6.298951],[-75.530711,6.298334],[-75.530559,6.29826],[-75.530452,6.298091],[-75.530151,6.297825],[-75.530231,6.297563],[-75.530225,6.297461],[-75.530023,6.297087],[-75.529862,6.297014],[-75.52976,6.296879],[-75.529604,6.296556],[-75.529569,6.295688],[-75.529657,6.29541],[-75.529703,6.294961],[-75.529888,6.294583],[-75.529907,6.294449],[-75.530053,6.294202],[-75.530066,6.294129],[-75.530137,6.294072],[-75.530118,6.293862],[-75.529897,6.293498],[-75.529793,6.293189],[-75.529649,6.292968],[-75.529466,6.292834],[-75.52927,6.292611],[-75.528948,6.292351],[-75.528727,6.292072],[-75.528509,6.291903],[-75.528328,6.291695],[-75.52822,6.291455],[-75.528141,6.291357],[-75.528114,6.290908],[-75.527886,6.290051],[-75.52799,6.289575],[-75.527982,6.289357],[-75.528047,6.289073],[-75.528497,6.288147],[-75.528527,6.287844],[-75.528507,6.287761],[-75.528396,6.287661],[-75.528197,6.287605],[-75.528027,6.287488],[-75.527935,6.287463],[-75.527647,6.287474],[-75.527128,6.28761],[-75.52634,6.287747],[-75.525666,6.287931],[-75.524091,6.287996],[-75.52266,6.28825],[-75.522564,6.288453],[-75.522202,6.288816],[-75.521992,6.289178],[-75.522069,6.289645],[-75.522175,6.290009],[-75.52209,6.291501],[-75.522148,6.29168],[-75.522332,6.29195],[-75.522639,6.292642],[-75.522668,6.292778],[-75.522603,6.293306],[-75.522626,6.293481],[-75.522699,6.293621],[-75.523114,6.294069],[-75.523231,6.294291],[-75.523085,6.29503],[-75.523188,6.295309],[-75.523224,6.295585],[-75.523308,6.295751],[-75.523559,6.295994],[-75.523757,6.296347],[-75.523974,6.296812],[-75.524069,6.297104],[-75.524104,6.297341],[-75.524292,6.297808],[-75.524392,6.298019],[-75.524773,6.29862],[-75.524914,6.298935],[-75.524953,6.299126],[-75.524925,6.299531],[-75.524973,6.299712],[-75.525147,6.299952],[-75.525568,6.300361],[-75.525783,6.300622],[-75.526058,6.300872],[-75.526454,6.301727],[-75.526673,6.302009],[-75.527089,6.30302],[-75.527489,6.304461],[-75.527494,6.304821],[-75.527551,6.305172],[-75.527573,6.305986],[-75.527678,6.306594],[-75.527672,6.306769],[-75.527561,6.307177],[-75.527626,6.307399],[-75.527769,6.30749],[-75.527831,6.307585],[-75.527882,6.307983],[-75.528028,6.308209],[-75.528031,6.308449],[-75.527908,6.308753],[-75.52787,6.308936],[-75.527731,6.309059],[-75.527612,6.309278],[-75.527615,6.309341],[-75.527664,6.309448],[-75.527773,6.309521],[-75.527945,6.309753],[-75.527959,6.3098],[-75.527888,6.31003],[-75.527973,6.310181],[-75.528117,6.31028],[-75.52816,6.310368],[-75.528164,6.310409],[-75.528076,6.310558],[-75.528083,6.31061],[-75.528336,6.310999],[-75.528411,6.311357],[-75.528358,6.311558],[-75.528498,6.311727],[-75.52864,6.311823],[-75.528807,6.312154],[-75.528916,6.312446],[-75.528893,6.312568],[-75.52895,6.312898],[-75.529226,6.313112],[-75.529265,6.313179],[-75.529253,6.313541],[-75.529299,6.313596],[-75.529671,6.313619],[-75.529735,6.313715],[-75.529767,6.313816],[-75.529765,6.314257],[-75.529929,6.314632],[-75.529941,6.314907],[-75.530023,6.315072],[-75.530002,6.315368],[-75.530197,6.315677],[-75.530413,6.315859],[-75.530574,6.316266],[-75.53058,6.316389],[-75.530401,6.316867],[-75.530441,6.317095],[-75.530567,6.317261],[-75.530778,6.31743],[-75.531042,6.31772],[-75.53134,6.317826],[-75.531379,6.317872],[-75.531369,6.318087],[-75.531304,6.318347],[-75.532984,6.325326],[-75.533203,6.325756],[-75.533411,6.325947],[-75.533557,6.326164],[-75.533724,6.326479],[-75.533759,6.326704],[-75.53401,6.327029],[-75.534092,6.327266],[-75.534103,6.327429],[-75.534193,6.327606],[-75.534219,6.327814],[-75.534427,6.328222],[-75.534386,6.32845],[-75.534425,6.328538],[-75.534498,6.32858],[-75.534585,6.328575],[-75.534686,6.328668],[-75.534704,6.328827],[-75.534817,6.329103],[-75.534903,6.329201],[-75.53499,6.329391],[-75.535172,6.329502],[-75.535137,6.329671],[-75.535267,6.329901],[-75.535369,6.329971],[-75.535554,6.330015],[-75.535613,6.330085],[-75.5356,6.330415],[-75.535632,6.330659],[-75.535586,6.331048],[-75.535678,6.331163],[-75.535841,6.331559],[-75.535977,6.331779],[-75.53604,6.332028],[-75.53602,6.332677],[-75.535989,6.332784],[-75.535709,6.332933],[-75.535541,6.333085],[-75.53553,6.333211],[-75.535627,6.333347],[-75.535663,6.333482],[-75.535622,6.333555],[-75.535442,6.333571],[-75.535375,6.33364],[-75.535358,6.333846],[-75.53539,6.333915],[-75.535358,6.334058],[-75.535143,6.334459],[-75.535126,6.334857],[-75.535153,6.335038],[-75.535343,6.335724],[-75.535492,6.336106],[-75.535375,6.336217],[-75.534968,6.336415],[-75.5347,6.336608],[-75.534379,6.336758],[-75.533511,6.336972],[-75.532061,6.337236],[-75.531269,6.3373],[-75.530503,6.337434],[-75.529898,6.337407],[-75.529176,6.337294],[-75.528713,6.337309],[-75.528495,6.337465],[-75.526506,6.338282],[-75.525532,6.338271],[-75.52535,6.338303],[-75.524492,6.338152],[-75.524243,6.338068],[-75.523936,6.338053],[-75.523754,6.338183],[-75.52352,6.338687],[-75.523196,6.339892],[-75.523183,6.34036],[-75.523106,6.340794],[-75.523042,6.341017],[-75.522943,6.341202],[-75.522694,6.341442],[-75.522496,6.341532],[-75.521526,6.341674],[-75.52099,6.341665],[-75.520842,6.34169],[-75.520585,6.341874],[-75.520533,6.341999],[-75.520486,6.342321],[-75.519841,6.344543],[-75.519738,6.344788],[-75.519422,6.345241],[-75.518714,6.345782],[-75.518443,6.345941],[-75.518293,6.345979],[-75.5181,6.345979],[-75.517014,6.345807],[-75.516859,6.345807],[-75.516791,6.346047],[-75.516949,6.346042],[-75.516998,6.346061],[-75.517032,6.346123],[-75.517051,6.346187],[-75.517002,6.346351],[-75.517013,6.346504],[-75.516967,6.346652],[-75.517248,6.34735],[-75.517274,6.347521],[-75.517335,6.347648],[-75.51733,6.347782],[-75.517564,6.348137],[-75.517711,6.34827],[-75.517747,6.348363],[-75.517772,6.348669],[-75.517744,6.348908],[-75.517728,6.349011],[-75.517574,6.349334],[-75.517579,6.349464],[-75.517777,6.350112],[-75.517817,6.350594],[-75.517893,6.350781],[-75.517927,6.351231],[-75.517521,6.352032],[-75.516805,6.352518],[-75.516749,6.352584],[-75.516522,6.353098],[-75.516588,6.353299],[-75.516568,6.353563],[-75.516741,6.353955],[-75.516761,6.354099],[-75.516724,6.354236],[-75.516554,6.354437],[-75.516428,6.354797],[-75.51631,6.354954],[-75.51632,6.355245],[-75.516192,6.355467],[-75.516048,6.355884],[-75.51605,6.356156],[-75.516105,6.356379],[-75.516237,6.356523],[-75.516249,6.356618],[-75.51612,6.357076],[-75.516145,6.357566],[-75.516203,6.357685],[-75.515953,6.358046],[-75.515868,6.35833],[-75.515836,6.358668],[-75.515663,6.359008],[-75.515552,6.359504],[-75.515461,6.359589],[-75.51532,6.359806],[-75.515356,6.360012],[-75.515333,6.360227],[-75.51524,6.360555],[-75.515286,6.360865],[-75.515435,6.361104],[-75.515443,6.361224],[-75.515356,6.36132],[-75.51536,6.361413],[-75.515545,6.361611],[-75.515683,6.361854],[-75.515715,6.362011],[-75.515894,6.362296],[-75.516074,6.362423],[-75.516412,6.362556],[-75.516518,6.362662],[-75.516569,6.362872],[-75.516616,6.36294],[-75.516841,6.363115],[-75.516944,6.363262],[-75.517042,6.363658],[-75.517158,6.363837],[-75.517912,6.364326],[-75.518164,6.36466],[-75.518531,6.364841],[-75.518645,6.364832],[-75.518944,6.364883],[-75.519019,6.365088],[-75.519218,6.365268],[-75.519532,6.3658],[-75.519961,6.366029],[-75.520043,6.366106],[-75.520119,6.366343],[-75.520277,6.366506],[-75.520289,6.366639],[-75.520367,6.366772],[-75.520696,6.367052],[-75.520809,6.367106],[-75.52097,6.367111],[-75.521351,6.367329],[-75.52164,6.36742],[-75.521853,6.367548],[-75.522001,6.367832],[-75.522475,6.36804],[-75.52273,6.368245],[-75.522943,6.368742],[-75.523222,6.368947],[-75.523523,6.369094],[-75.523686,6.369377],[-75.523688,6.369731],[-75.523779,6.370267],[-75.523982,6.370779],[-75.524278,6.370906],[-75.524492,6.371039],[-75.524658,6.371275],[-75.524848,6.371419],[-75.525031,6.371647],[-75.525229,6.371801],[-75.525384,6.371768],[-75.525463,6.371795],[-75.525652,6.371997],[-75.525908,6.371828],[-75.526035,6.372022],[-75.52633,6.372086],[-75.526768,6.37236],[-75.527526,6.372764],[-75.52803,6.373159],[-75.528198,6.37337],[-75.528731,6.374245],[-75.529159,6.374693],[-75.52989,6.375325],[-75.530291,6.375627],[-75.530879,6.376566],[-75.53124,6.376965],[-75.532074,6.378],[-75.532225,6.378298],[-75.532377,6.379012],[-75.532171,6.379528],[-75.532157,6.379755],[-75.532102,6.379761],[-75.531992,6.379865],[-75.531766,6.380264],[-75.531615,6.380393],[-75.531601,6.380545],[-75.531555,6.380618],[-75.531486,6.380679],[-75.53122,6.380802],[-75.531314,6.380877],[-75.531418,6.381213],[-75.531664,6.38157],[-75.531806,6.38184],[-75.53203,6.38197],[-75.532479,6.382064],[-75.532634,6.38218],[-75.532942,6.382223],[-75.533204,6.382441],[-75.533712,6.382673],[-75.534053,6.38339],[-75.534529,6.384198],[-75.534701,6.38437],[-75.534877,6.384471],[-75.53517,6.384728],[-75.535438,6.384898],[-75.535587,6.385201],[-75.535449,6.385651],[-75.535114,6.385939],[-75.534918,6.386158],[-75.534722,6.386447],[-75.53456,6.38677],[-75.534537,6.387058],[-75.534686,6.387482],[-75.534488,6.38765],[-75.534476,6.387947],[-75.534545,6.388059],[-75.534813,6.388246],[-75.534977,6.388319],[-75.535252,6.388608],[-75.535593,6.388845],[-75.535791,6.388905],[-75.536401,6.3889],[-75.536727,6.388786],[-75.537445,6.388786],[-75.537756,6.388753],[-75.53831,6.388623],[-75.539338,6.388558],[-75.539616,6.388313],[-75.54029,6.387853],[-75.540698,6.387445],[-75.541008,6.387233],[-75.541253,6.387004],[-75.541465,6.386564],[-75.541677,6.38627],[-75.542777,6.386041],[-75.543364,6.386041],[-75.54436,6.385584],[-75.544931,6.385568],[-75.545225,6.38547],[-75.545567,6.385209],[-75.545829,6.38485],[-75.546008,6.384409],[-75.547052,6.383789],[-75.547803,6.383137],[-75.548048,6.382778],[-75.548162,6.382403],[-75.548478,6.382307],[-75.548821,6.382421],[-75.549033,6.382356],[-75.549131,6.382095],[-75.549506,6.381964],[-75.550028,6.381964],[-75.550452,6.381589],[-75.551154,6.381605],[-75.551399,6.381654],[-75.551839,6.381883],[-75.552345,6.381948],[-75.552672,6.381899],[-75.553227,6.381214],[-75.553553,6.381083],[-75.553961,6.38136],[-75.554026,6.381507],[-75.554108,6.381948],[-75.554206,6.382242],[-75.554565,6.382633],[-75.554956,6.383726],[-75.555087,6.384689],[-75.555087,6.385244],[-75.555168,6.38557],[-75.555397,6.385782],[-75.55569,6.385978],[-75.556098,6.38632],[-75.556229,6.386728],[-75.557063,6.387714],[-75.557205,6.387738],[-75.557348,6.387821],[-75.557765,6.388166],[-75.557914,6.388333],[-75.558003,6.388589],[-75.557991,6.388928],[-75.55817,6.389904],[-75.558253,6.390202],[-75.558403,6.390486],[-75.558599,6.390682],[-75.558879,6.390897],[-75.559313,6.391611],[-75.559438,6.391861],[-75.559468,6.392022],[-75.559599,6.39223],[-75.559593,6.392688],[-75.559563,6.392825],[-75.559504,6.39295],[-75.559331,6.393027],[-75.559274,6.393133],[-75.559307,6.393395],[-75.560227,6.395639],[-75.56021,6.39587],[-75.560292,6.39607],[-75.560284,6.396228],[-75.560801,6.396718],[-75.561088,6.397068],[-75.561362,6.397166],[-75.561459,6.397242],[-75.561606,6.397426],[-75.562095,6.397881],[-75.562296,6.397974],[-75.562688,6.398431],[-75.562901,6.398845],[-75.56306,6.399259],[-75.563082,6.399568],[-75.563221,6.399746],[-75.56327,6.400225],[-75.563691,6.400879],[-75.56379,6.400976],[-75.563888,6.401253],[-75.564112,6.401524],[-75.564354,6.402059],[-75.564572,6.402153],[-75.56477,6.402293],[-75.564855,6.402528],[-75.56487,6.402751],[-75.564913,6.402802],[-75.565363,6.403034],[-75.565765,6.403076],[-75.567187,6.403508],[-75.567699,6.403715],[-75.56789,6.404083],[-75.567917,6.404318],[-75.567867,6.404622],[-75.567867,6.40538],[-75.567942,6.405709],[-75.567942,6.40605],[-75.567778,6.406809],[-75.567791,6.407711],[-75.567829,6.408355],[-75.567944,6.408856],[-75.567969,6.40969],[-75.567906,6.410613],[-75.567792,6.410954],[-75.567767,6.411523],[-75.567856,6.411953],[-75.567944,6.412041],[-75.568033,6.412357],[-75.568172,6.413571],[-75.568331,6.414137],[-75.568806,6.414954],[-75.569191,6.415094],[-75.569402,6.415424],[-75.569543,6.415965],[-75.569684,6.416713],[-75.56997,6.417783],[-75.570035,6.417952],[-75.570224,6.418262],[-75.570333,6.418753],[-75.570544,6.419174],[-75.570633,6.419278],[-75.570874,6.419383],[-75.571028,6.419519],[-75.571395,6.419951],[-75.571605,6.420102],[-75.571706,6.420274],[-75.571912,6.420409],[-75.57204,6.420564],[-75.572833,6.42108],[-75.573071,6.421182],[-75.573649,6.421353],[-75.573975,6.421552],[-75.57469,6.422283],[-75.575841,6.423379],[-75.576235,6.423691],[-75.576496,6.423821],[-75.576799,6.424036],[-75.576963,6.4242],[-75.577229,6.424571],[-75.577612,6.424895],[-75.57787,6.425061],[-75.579275,6.425475],[-75.579535,6.425365],[-75.580031,6.425263],[-75.580524,6.425081],[-75.580835,6.425122],[-75.581202,6.424885],[-75.58144,6.424623],[-75.581603,6.424534],[-75.58181,6.424535]]]},"properties":{"OBJECTID":1,"AREA":80887581.6455,"PERIMETER":79921.8789066,"Shape_Length":64229.123727451464,"Shape_Area":140735112.40389484}}]}
